{
  "links" : {
    "next" : "https://api.nasa.gov/neo/rest/v1/feed?start_date=2009-02-16&end_date=2009-02-16&detailed=true&api_key=t0TVs3DtDT2H8Oy2Zy8m2eVrNsAVKAexjcZXUckd",
    "prev" : "https://api.nasa.gov/neo/rest/v1/feed?start_date=2009-02-14&end_date=2009-02-14&detailed=true&api_key=t0TVs3DtDT2H8Oy2Zy8m2eVrNsAVKAexjcZXUckd",
    "self" : "https://api.nasa.gov/neo/rest/v1/feed?start_date=2009-02-15&end_date=2009-02-15&detailed=true&api_key=t0TVs3DtDT2H8Oy2Zy8m2eVrNsAVKAexjcZXUckd"
  },
  "element_count" : 6,
  "near_earth_objects" : {
    "2009-02-15" : [ {
      "links" : {
        "self" : "https://api.nasa.gov/neo/rest/v1/neo/3444372?api_key=t0TVs3DtDT2H8Oy2Zy8m2eVrNsAVKAexjcZXUckd"
      },
      "neo_reference_id" : "3444372",
      "name" : "(2009 BK2)",
      "nasa_jpl_url" : "http://ssd.jpl.nasa.gov/sbdb.cgi?sstr=3444372",
      "absolute_magnitude_h" : 25.3,
      "estimated_diameter" : {
        "kilometers" : {
          "estimated_diameter_min" : 0.0231502122,
          "estimated_diameter_max" : 0.0517654482
        },
        "meters" : {
          "estimated_diameter_min" : 23.150212221,
          "estimated_diameter_max" : 51.7654482198
        },
        "miles" : {
          "estimated_diameter_min" : 0.0143848705,
          "estimated_diameter_max" : 0.0321655483
        },
        "feet" : {
          "estimated_diameter_min" : 75.9521422633,
          "estimated_diameter_max" : 169.8341531374
        }
      },
      "is_potentially_hazardous_asteroid" : false,
      "close_approach_data" : [ {
        "close_approach_date" : "2009-02-15",
        "epoch_date_close_approach" : 1234684800000,
        "relative_velocity" : {
          "kilometers_per_second" : "4.4840845191",
          "kilometers_per_hour" : "16142.7042689111",
          "miles_per_hour" : "10030.4486608687"
        },
        "miss_distance" : {
          "astronomical" : "0.1004827836",
          "lunar" : "39.087802887",
          "kilometers" : "15032011",
          "miles" : "9340458"
        },
        "orbiting_body" : "Earth"
      } ],
      "orbital_data" : {
        "orbit_id" : "9",
        "orbit_determination_date" : "2017-04-06 09:01:37",
        "orbit_uncertainty" : "6",
        "minimum_orbit_intersection" : ".0260372",
        "jupiter_tisserand_invariant" : "5.999",
        "epoch_osculation" : "2458000.5",
        "eccentricity" : ".2125930468909539",
        "semi_major_axis" : "1.012508661951755",
        "inclination" : "3.553442212088394",
        "ascending_node_longitude" : "126.0814471570123",
        "orbital_period" : "372.1315978975369",
        "perihelion_distance" : ".797256360503949",
        "perihelion_argument" : "121.5262754277315",
        "aphelion_distance" : "1.227760963399562",
        "perihelion_time" : "2457939.370406013472",
        "mean_anomaly" : "59.13675151339703",
        "mean_motion" : ".9673997103012003",
        "equinox" : "J2000"
      }
    }, {
      "links" : {
        "self" : "https://api.nasa.gov/neo/rest/v1/neo/3508133?api_key=t0TVs3DtDT2H8Oy2Zy8m2eVrNsAVKAexjcZXUckd"
      },
      "neo_reference_id" : "3508133",
      "name" : "(2010 CD55)",
      "nasa_jpl_url" : "http://ssd.jpl.nasa.gov/sbdb.cgi?sstr=3508133",
      "absolute_magnitude_h" : 23.3,
      "estimated_diameter" : {
        "kilometers" : {
          "estimated_diameter_min" : 0.058150704,
          "estimated_diameter_max" : 0.130028927
        },
        "meters" : {
          "estimated_diameter_min" : 58.1507039646,
          "estimated_diameter_max" : 130.0289270043
        },
        "miles" : {
          "estimated_diameter_min" : 0.0361331611,
          "estimated_diameter_max" : 0.0807962044
        },
        "feet" : {
          "estimated_diameter_min" : 190.7831555951,
          "estimated_diameter_max" : 426.6041048727
        }
      },
      "is_potentially_hazardous_asteroid" : false,
      "close_approach_data" : [ {
        "close_approach_date" : "2009-02-15",
        "epoch_date_close_approach" : 1234684800000,
        "relative_velocity" : {
          "kilometers_per_second" : "12.3028667007",
          "kilometers_per_hour" : "44290.3201226878",
          "miles_per_hour" : "27520.2825229001"
        },
        "miss_distance" : {
          "astronomical" : "0.1811211278",
          "lunar" : "70.4561157227",
          "kilometers" : "27095334",
          "miles" : "16836260"
        },
        "orbiting_body" : "Earth"
      } ],
      "orbital_data" : {
        "orbit_id" : "18",
        "orbit_determination_date" : "2017-04-06 08:58:23",
        "orbit_uncertainty" : "2",
        "minimum_orbit_intersection" : ".012463",
        "jupiter_tisserand_invariant" : "5.946",
        "epoch_osculation" : "2458000.5",
        "eccentricity" : ".2012911336705421",
        "semi_major_axis" : "1.024000042047075",
        "inclination" : "5.930585319232098",
        "ascending_node_longitude" : "326.8314685044938",
        "orbital_period" : "378.4847526925599",
        "perihelion_distance" : ".8178779127047361",
        "perihelion_argument" : "279.3160873335891",
        "aphelion_distance" : "1.230122171389413",
        "perihelion_time" : "2457975.160339082012",
        "mean_anomaly" : "24.10210151288632",
        "mean_motion" : ".9511611694762909",
        "equinox" : "J2000"
      }
    }, {
      "links" : {
        "self" : "https://api.nasa.gov/neo/rest/v1/neo/3763102?api_key=t0TVs3DtDT2H8Oy2Zy8m2eVrNsAVKAexjcZXUckd"
      },
      "neo_reference_id" : "3763102",
      "name" : "(2016 UB107)",
      "nasa_jpl_url" : "http://ssd.jpl.nasa.gov/sbdb.cgi?sstr=3763102",
      "absolute_magnitude_h" : 25.2,
      "estimated_diameter" : {
        "kilometers" : {
          "estimated_diameter_min" : 0.0242412481,
          "estimated_diameter_max" : 0.0542050786
        },
        "meters" : {
          "estimated_diameter_min" : 24.2412481101,
          "estimated_diameter_max" : 54.2050786336
        },
        "miles" : {
          "estimated_diameter_min" : 0.0150628086,
          "estimated_diameter_max" : 0.0336814639
        },
        "feet" : {
          "estimated_diameter_min" : 79.5316564495,
          "estimated_diameter_max" : 177.8381901842
        }
      },
      "is_potentially_hazardous_asteroid" : false,
      "close_approach_data" : [ {
        "close_approach_date" : "2009-02-15",
        "epoch_date_close_approach" : 1234684800000,
        "relative_velocity" : {
          "kilometers_per_second" : "2.2318434504",
          "kilometers_per_hour" : "8034.6364215521",
          "miles_per_hour" : "4992.4106142694"
        },
        "miss_distance" : {
          "astronomical" : "0.3077649933",
          "lunar" : "119.7205886841",
          "kilometers" : "46040992",
          "miles" : "28608544"
        },
        "orbiting_body" : "Earth"
      } ],
      "orbital_data" : {
        "orbit_id" : "7",
        "orbit_determination_date" : "2017-07-11 15:30:21",
        "orbit_uncertainty" : "3",
        "minimum_orbit_intersection" : ".00691327",
        "jupiter_tisserand_invariant" : "4.768",
        "epoch_osculation" : "2458000.5",
        "eccentricity" : ".3062652143173795",
        "semi_major_axis" : "1.372795665101292",
        "inclination" : ".97322029989992",
        "ascending_node_longitude" : "18.2754379218223",
        "orbital_period" : "587.4991945869748",
        "perihelion_distance" : ".9523561065150753",
        "perihelion_argument" : "57.94397554361847",
        "aphelion_distance" : "1.793235223687509",
        "perihelion_time" : "2457727.581920210549",
        "mean_anomaly" : "167.235137732018",
        "mean_motion" : ".6127667974984854",
        "equinox" : "J2000"
      }
    } ]
  }
}